NORAD_CAT_ID,OBJECT_NAME,OBJECT_TYPE,EPOCH,MEAN_MOTION,ECCENTRICITY,INCLINATION,RA_OF_ASC_NODE,ARG_OF_PERICENTER,MEAN_ANOMALY,BSTAR,MEAN_MOTION_DOT,MEAN_MOTION_DDOT,TLE_LINE0,TLE_LINE1,TLE_LINE2,SEMIMAJOR_AXIS,PERIOD,APOGEE,PERIGEE,DECAYED
49735.0,STARLINK-3113,PAYLOAD,2022-10-23 07:52:38,15.0884345,0.0002077,53.2184,295.892,52.5448,307.5732,6.4804e-05,7.43e-06,0.0,0 STARLINK-3113,1 49735U 21115M   22296.32821894  .00000743  00000-0  64804-4 0  9996,2 49735  53.2184 295.8920 0002077  52.5448 307.5732 15.08843450 49190,6917.87,95.437,541.172,538.298,0.0
49735.0,STARLINK-3113,PAYLOAD,2022-10-23 17:24:56,15.08849037,0.0002056999999999,53.2183,294.1074,51.6287,308.4890000000001,0.00015812,2.23e-05,0.0,0 STARLINK-3113,1 49735U 21115M   22296.72565054  .00002230  00000-0  15812-3 0  9990,2 49735  53.2183 294.1074 0002057  51.6287 308.4890 15.08849037 49259,6917.853,95.437,541.141,538.295,0.0
49735.0,STARLINK-3113,PAYLOAD,2022-10-24 09:18:48,15.08841732,0.0002286,53.2188,291.1357,46.0764,314.0416,2.7971e-05,1.57e-06,0.0,0 STARLINK-3113,1 49735U 21115M   22297.38805692  .00000157  00000-0  27971-4 0  9994,2 49735  53.2188 291.1357 0002286  46.0764 314.0416 15.08841732 49359,6917.875,95.437,541.322,538.159,0.0
49735.0,STARLINK-3113,PAYLOAD,2022-10-25 09:09:36,15.08831074,0.0002105,53.2188,286.6734,51.3618,308.7563,-0.00012255,-2.238e-05,0.0,0 STARLINK-3113,1 49735U 21115M   22298.38167327 -.00002238  00000-0 -12255-3 0  9993,2 49735  53.2188 286.6734 0002105  51.3618 308.7563 15.08831074 49502,6917.908,95.438,541.229,538.316,0.0
49735.0,STARLINK-3113,PAYLOAD,2022-10-26 05:49:35,15.08885606,0.0002368,53.2173,282.8076,45.6636,314.455,-0.0006341,-0.00010379,0.0,0 STARLINK-3113,1 49735U 21115M   22299.24277195 -.00010379  00000-0 -63410-3 0  9998,2 49735  53.2173 282.8076 0002368  45.6636 314.4550 15.08885606 50748,6917.741,95.435,541.244,537.9680000000002,0.0
49735.0,STARLINK-3113,PAYLOAD,2022-10-26 07:25:00,15.08829664,0.0002052,53.2172,282.5102,49.3945,310.7225,0.00013819,1.911e-05,0.0,0 STARLINK-3113,1 49735U 21115M   22299.30902815  .00001911  00000-0  13819-3 0  9997,2 49735  53.2172 282.5102 0002052  49.3945 310.7225 15.08829664 49645,6917.9119999999975,95.438,541.197,538.357,0.0
49735.0,STARLINK-3113,PAYLOAD,2022-10-27 02:29:36,15.0884582,0.0002053,53.2173,278.9422,48.8176,311.2993,0.00021738,3.174e-05,0.0,0 STARLINK-3113,1 49735U 21115M   22300.10389936  .00003174  00000-0  21738-3 0  9993,2 49735  53.2173 278.9422 0002053  48.8176 311.2993 15.08845820 50878,6917.863,95.437,541.148,538.307,0.0
49735.0,STARLINK-3113,PAYLOAD,2022-10-27 07:15:46,15.08839207,0.0002163,53.2174,278.0499,47.51600000000001,312.6015,0.00015479,2.176e-05,0.0,0 STARLINK-3113,1 49735U 21115M   22300.30262564  .00002176  00000-0  15479-3 0  9998,2 49735  53.2174 278.0499 0002163  47.5160 312.6015 15.08839207 49796,6917.8830000000025,95.438,541.244,538.251,0.0
49735.0,STARLINK-3113,PAYLOAD,2022-10-28 05:31:10,15.08843909,0.0002036,53.2177,273.8887,54.0822,306.0359,3.2832e-05,2.34e-06,0.0,0 STARLINK-3113,1 49735U 21115M   22301.22998723  .00000234  00000-0  32832-4 0  9999,2 49735  53.2177 273.8887 0002036  54.0822 306.0359 15.08843909 49938,6917.868,95.437,541.1419999999998,538.325,0.0
49735.0,STARLINK-3113,PAYLOAD,2022-10-28 15:03:29,15.08846869,0.000199,53.217,272.1029,48.453,311.6632,2.3195e-05,8.1e-07,0.0,0 STARLINK-3113,1 49735U 21115M   22301.62742334  .00000081  00000-0  23195-4 0  9990,2 49735  53.2170 272.1029 0001990  48.4530 311.6632 15.08846869 49992,6917.859,95.437,541.101,538.3480000000002,0.0
49735.0,STARLINK-3113,PAYLOAD,2022-10-29 05:21:56,15.08858309,0.0002021999999999,53.2177,269.4273,51.7911,308.3263,1.5015e-05,-4.9e-07,0.0,0 STARLINK-3113,1 49735U 21115M   22302.22357252 -.00000049  00000-0  15015-4 0  9995,2 49735  53.2177 269.4273 0002022  51.7911 308.3263 15.08858309 50083,6917.824000000001,95.436,541.0880000000002,538.2909999999998,0.0
49735.0,STARLINK-3113,PAYLOAD,2022-10-29 14:54:15,15.08843653,0.0002038,53.2174,267.6422,48.7207,311.396,6.9033e-05,8.11e-06,0.0,0 STARLINK-3113,1 49735U 21115M   22302.62101758  .00000811  00000-0  69033-4 0  9992,2 49735  53.2174 267.6422 0002038  48.7207 311.3960 15.08843653 50148,6917.869000000002,95.437,541.144,538.3240000000002,0.0
49735.0,STARLINK-3113,PAYLOAD,2022-10-30 05:12:43,15.08849293,0.0002003,53.2181,264.9665,49.1988,310.9177,6.2235e-05,7.03e-06,0.0,0 STARLINK-3113,1 49735U 21115M   22303.21717248  .00000703  00000-0  62235-4 0  9992,2 49735  53.2181 264.9665 0002003  49.1988 310.9177 15.08849293 50239,6917.852,95.437,541.1030000000002,538.331,0.0
49735.0,STARLINK-3113,PAYLOAD,2022-10-30 21:06:35,15.08845719,0.0002037,53.2185,261.9953,50.3213,309.7958,-3.8549e-05,-9.02e-06,0.0,0 STARLINK-3113,1 49735U 21115M   22303.87957565 -.00000902  00000-0 -38549-4 0  9996,2 49735  53.2185 261.9953 0002037  50.3213 309.7958 15.08845719 50335,6917.863,95.437,541.137,538.319,0.0
49735.0,STARLINK-3113,PAYLOAD,2022-10-31 05:03:32,15.0883102,0.0001904,53.2183,260.5047,51.0664,309.0497,-0.00012279,-2.241e-05,0.0,0 STARLINK-3113,1 49735U 21115M   22304.21078749 -.00002241  00000-0 -12279-3 0  9992,2 49735  53.2183 260.5047 0001904  51.0664 309.0497 15.08831020 50388,6917.908,95.438,541.09,538.456,0.0
49735.0,STARLINK-3113,PAYLOAD,2022-10-31 14:35:51,15.08823128,0.0001886999999999,53.2183,258.7206,50.5588,309.5571,-0.00013866,-2.493e-05,0.0,0 STARLINK-3113,1 49735U 21115M   22304.60823565 -.00002493  00000-0 -13866-3 0  9991,2 49735  53.2183 258.7206 0001887  50.5588 309.5571 15.08823128 50448,6917.932,95.439,541.102,538.492,0.0
49735.0,STARLINK-3113,PAYLOAD,2022-11-01 03:18:55,15.08839159,0.0001629999999999,53.2175,256.3417,48.2152,311.8979,-5.0978e-05,-1.099e-05,0.0,0 STARLINK-3113,1 49735U 21115M   22305.13814561 -.00001099  00000-0 -50978-4 0  9993,2 49735  53.2175 256.3417 0001630  48.2152 311.8979 15.08839159 51635,6917.8830000000025,95.438,540.876,538.62,0.0
49735.0,STARLINK-3113,PAYLOAD,2022-11-01 06:29:42,15.08837523,0.0001972,53.218,255.747,44.6353,315.4797,-1.146e-05,-4.71e-06,0.0,0 STARLINK-3113,1 49735U 21115M   22305.27062652 -.00000471  00000-0 -11460-4 0  9990,2 49735  53.2180 255.7470 0001972  44.6353 315.4797 15.08837523 50545,6917.888000000001,95.438,541.117,538.389,0.0
49735.0,STARLINK-3113,PAYLOAD,2022-11-01 14:26:36,15.0884749,0.0001705,53.2187,254.2601,53.3831,306.7318,8.919e-05,1.132e-05,0.0,0 STARLINK-3113,1 49735U 21115M   22305.60181597  .00001132  00000-0  89190-4 0  9995,2 49735  53.2187 254.2601 0001705  53.3831 306.7318 15.08847490 50595,6917.857,95.437,540.9019999999998,538.543,0.0
49735.0,STARLINK-3113,PAYLOAD,2022-11-02 03:09:42,15.08837371,0.0001495,53.2185,251.8819,54.8383,305.2749,0.00018034,2.583e-05,0.0,0 STARLINK-3113,1 49735U 21115M   22306.13173867  .00002583  00000-0  18034-3 0  9994,2 49735  53.2185 251.8819 0001495  54.8383 305.2749 15.08837371 51782,6917.888000000001,95.438,540.788,538.719,0.0
49735.0,STARLINK-3113,PAYLOAD,2022-11-02 06:20:28,15.08832642,0.0001469,53.2179,251.2872,58.4319,301.6817,0.00014434,2.01e-05,0.0,0 STARLINK-3113,1 49735U 21115M   22306.26422346  .00002010  00000-0  14434-3 0  9992,2 49735  53.2179 251.2872 0001469  58.4319 301.6817 15.08832642 50699,6917.903,95.438,540.784,538.752,0.0
49735.0,STARLINK-3113,PAYLOAD,2022-11-02 20:38:58,15.08827762,0.0001706999999999,53.2184,248.6075,61.5545,298.5619,-7.8006e-06,-4.12e-06,0.0,0 STARLINK-3113,1 49735U 21115M   22306.86039784 -.00000412  00000-0 -78006-5 0  9991,2 49735  53.2184 248.6075 0001707  61.5545 298.5619 15.08827762 51895,6917.918000000002,95.438,540.964,538.602,0.0
49735.0,STARLINK-3113,PAYLOAD,2022-11-03 03:00:31,15.08810601,0.0001548,53.2179,247.4166,75.8586,284.2578,0.00028108,4.185e-05,0.0,0 STARLINK-3113,1 49735U 21115M   22307.12535882  .00004185  00000-0  28108-3 0  9996,2 49735  53.2179 247.4166 0001548  75.8586 284.2578 15.08810601 50825,6917.97,95.439,540.906,538.764,0.0
49735.0,STARLINK-3113,PAYLOAD,2022-11-03 20:29:43,15.08850804,0.0001033,53.218,244.1435,88.8246,271.2865,0.00011982,1.62e-05,0.0,0 STARLINK-3113,1 49735U 21115M   22307.85397590  .00001620  00000-0  11982-3 0  9991,2 49735  53.2180 244.1435 0001033  88.8246 271.2865 15.08850804 50932,6917.847,95.437,540.427,538.998,0.0
49735.0,STARLINK-3113,PAYLOAD,2022-11-04 02:51:16,15.08855482,0.0001643,53.2183,242.9618,50.7091,309.4047,7.3297e-05,8.79e-06,0.0,0 STARLINK-3113,1 49735U 21115M   22308.11893607  .00000879  00000-0  73297-4 0  9994,2 49735  53.2183 242.9618 0001643  50.7091 309.4047 15.08855482 52088,6917.833000000001,95.437,540.835,538.561,0.0
49735.0,STARLINK-3113,PAYLOAD,2022-11-04 12:23:35,15.0884506,0.000201,53.2185,241.1742,49.7822,310.3346,0.00015027,2.105e-05,0.0,0 STARLINK-3113,1 49735U 21115M   22308.51637893  .00002105  00000-0  15027-3 0  9991,2 49735  53.2185 241.1742 0002010  49.7822 310.3346 15.08845060 52149,6917.865,95.437,541.12,538.339,0.0
49735.0,STARLINK-3113,PAYLOAD,2022-11-04 20:20:31,15.08833808,0.0001476,53.2168,239.6922,60.0905,300.0234,9.8025e-05,1.272e-05,0.0,0 STARLINK-3113,1 49735U 21115M   22308.84758685  .00001272  00000-0  98025-4 0  9994,2 49735  53.2168 239.6922 0001476  60.0905 300.0234 15.08833808 52199,6917.899,95.438,540.785,538.743,0.0
49735.0,STARLINK-3113,PAYLOAD,2022-11-05 12:14:24,15.08823416,0.0001837,53.2181,236.7134,45.1069,315.0072,-0.00010191,-1.909e-05,0.0,0 STARLINK-3113,1 49735U 21115M   22309.51000208 -.00001909  00000-0 -10191-3 0  9996,2 49735  53.2181 236.7134 0001837  45.1069 315.0072 15.08823416 51181,6917.931,95.439,541.067,538.525,0.0
49735.0,STARLINK-3113,PAYLOAD,2022-11-06 04:08:14,15.0884359,0.0001699,53.2173,233.7436,52.2088,307.9058,-3.5285e-05,-8.5e-06,0.0,0 STARLINK-3113,1 49735U 21115M   22310.17239238 -.00000850  00000-0 -35285-4 0  9993,2 49735  53.2173 233.7436 0001699  52.2088 307.9058 15.08843590 52393,6917.869000000002,95.437,540.91,538.559,0.0
